[{"OBJECT_NAME":"STARLINK-34628","OBJECT_ID":"2025-152Y","EPOCH":"2026-03-09T14:01:51.313152","MEAN_MOTION":15.05660627,"ECCENTRICITY":0.0002788,"INCLINATION":97.6017,"RA_OF_ASC_NODE":285.438,"ARG_OF_PERICENTER":71.4734,"MEAN_ANOMALY":288.6796,"EPHEMERIS_TYPE":0,"CLASSIFICATION_TYPE":"U","NORAD_CAT_ID":64864,"ELEMENT_SET_NO":999,"REV_AT_EPOCH":3540,"BSTAR":0.00042597,"MEAN_MOTION_DOT":6.093e-5,"MEAN_MOTION_DDOT":0},{"OBJECT_NAME":"RAPIDEYE 4","OBJECT_ID":"2008-040E","EPOCH":"2026-03-09T22:51:05.848992","MEAN_MOTION":15.03765217,"ECCENTRICITY":0.00096509,"INCLINATION":97.4015,"RA_OF_ASC_NODE":97.7474,"ARG_OF_PERICENTER":35.5595,"MEAN_ANOMALY":324.6273,"EPHEMERIS_TYPE":0,"CLASSIFICATION_TYPE":"U","NORAD_CAT_ID":33316,"ELEMENT_SET_NO":999,"REV_AT_EPOCH":95086,"BSTAR":0.00022327721,"MEAN_MOTION_DOT":3.01e-5,"MEAN_MOTION_DDOT":0}]
